NORAD_CAT_ID,OBJECT_NAME,OBJECT_TYPE,EPOCH,MEAN_MOTION,ECCENTRICITY,INCLINATION,RA_OF_ASC_NODE,ARG_OF_PERICENTER,MEAN_ANOMALY,BSTAR,MEAN_MOTION_DOT,MEAN_MOTION_DDOT,TLE_LINE0,TLE_LINE1,TLE_LINE2,SEMIMAJOR_AXIS,PERIOD,APOGEE,PERIGEE,DECAYED
52503.0,STARLINK-3861,PAYLOAD,2024-05-02 11:28:29,15.0884747,0.0001079,53.2158,194.7999,97.6286,262.4829,0.00012506,1.703e-05,0.0,0 STARLINK-3861,1 52503U 22049BE  24123.47811959  .00001703  00000-0  12506-3 0  9996,2 52503  53.2158 194.7999 0001079  97.6286 262.4829 15.08847470110441,6917.858,95.437,540.469,538.976,0.0
52503.0,STARLINK-3861,PAYLOAD,2024-05-03 11:19:16,15.08851596,0.0001059,53.2148,190.3405,83.9989,276.1124,0.00031307,4.7e-05,0.0,0 STARLINK-3861,1 52503U 22049BE  24124.47171732  .00004700  00000-0  31307-3 0  9995,2 52503  53.2148 190.3405 0001059  83.9989 276.1124 15.08851596110758,6917.845,95.437,540.443,538.977,0.0
52503.0,STARLINK-3861,PAYLOAD,2024-05-03 14:30:02,15.08863579,0.0001411,53.215,189.7441,96.5135,263.6018,0.00065234,0.00010116,0.0,0 STARLINK-3861,1 52503U 22049BE  24124.60419358  .00010116  00000-0  65234-3 0  9993,2 52503  53.2150 189.7441 0001411  96.5135 263.6018 15.08863579110610,6917.808,95.436,540.649,538.697,0.0
52503.0,STARLINK-3861,PAYLOAD,2024-05-03 20:51:34,15.08859843,0.000122,53.2154,188.5555,94.3941,265.719,0.00043647,6.669e-05,0.0,0 STARLINK-3861,1 52503U 22049BE  24124.86915080  .00006669  00000-0  43647-3 0  9996,2 52503  53.2154 188.5555 0001220  94.3941 265.7190 15.08859843110653,6917.82,95.436,540.529,538.841,0.0
52503.0,STARLINK-3861,PAYLOAD,2024-05-04 04:48:31,15.08821911,0.0001091,53.2149,187.0675,94.5103,265.6014,-0.0002801,-4.741e-05,0.0,0 STARLINK-3861,1 52503U 22049BE  24125.20036480 -.00004741  00000-0 -28010-3 0  9991,2 52503  53.2149 187.0675 0001091  94.5103 265.6014 15.08821911110864,6917.936,95.439,540.555,539.046,0.0
52503.0,STARLINK-3861,PAYLOAD,2024-05-05 04:39:18,15.08833996,0.0001328,53.2148,182.6078,100.94,259.1741,-5.6436e-06,-3.78e-06,0.0,0 STARLINK-3861,1 52503U 22049BE  24126.19396849 -.00000378  00000-0 -56436-5 0  9995,2 52503  53.2148 182.6078 0001328 100.9400 259.1741 15.08833996111015,6917.899,95.438,540.682,538.845,0.0
52503.0,STARLINK-3861,PAYLOAD,2024-05-05 12:36:14,15.08838571,0.0001323,53.2154,181.1216,103.9929,256.121,0.00068883,0.00010691,0.0,0 STARLINK-3861,1 52503U 22049BE  24126.52517245  .00010691  00000-0  68883-3 0  9991,2 52503  53.2154 181.1216 0001323 103.9929 256.1210 15.08838571110903,6917.885,95.438,540.665,538.835,0.0
52503.0,STARLINK-3861,PAYLOAD,2024-05-06 10:51:38,15.08862647,0.0001219,53.2145,176.9579,101.2133,258.8997,0.00095326,0.00014925,0.0,0 STARLINK-3861,1 52503U 22049BE  24127.45252688  .00014925  00000-0  95326-3 0  9997,2 52503  53.2145 176.9579 0001219 101.2133 258.8997 15.08862647111047,6917.811,95.436,540.519,538.833,0.0
52503.0,STARLINK-3861,PAYLOAD,2024-05-07 02:45:29,15.08862311,0.0001287,53.2143,173.9862,95.985,264.1289,0.00053131,8.183e-05,0.0,0 STARLINK-3861,1 52503U 22049BE  24128.11492064  .00008183  00000-0  53131-3 0  9992,2 52503  53.2143 173.9862 0001287  95.9850 264.1289 15.08862311111308,6917.812,95.436,540.568,538.787,0.0
52503.0,STARLINK-3861,PAYLOAD,2024-05-07 10:42:25,15.08848831,0.0001168,53.2143,172.4944,89.3128,270.7998,0.00013644,1.885e-05,0.0,0 STARLINK-3861,1 52503U 22049BE  24128.44612334  .00001885  00000-0  13644-3 0  9999,2 52503  53.2143 172.4944 0001168  89.3128 270.7998 15.08848831111352,6917.853,95.437,540.526,538.91,0.0
52503.0,STARLINK-3861,PAYLOAD,2024-05-08 02:36:16,15.0884149,0.0001209,53.2142,169.5215,86.845,273.268,-3.8296e-05,-8.97e-06,0.0,0 STARLINK-3861,1 52503U 22049BE  24129.10852531 -.00000897  00000-0 -38296-4 0  9993,2 52503  53.2142 169.5215 0001209  86.8450 273.2680 15.08841490111456,6917.876,95.437,540.577,538.904,0.0
52503.0,STARLINK-3861,PAYLOAD,2024-05-08 08:57:49,15.08841255,0.000121,53.2147,168.3319,87.2881,272.8249,-4.0912e-05,-9.39e-06,0.0,0 STARLINK-3861,1 52503U 22049BE  24129.37348684 -.00000939  00000-0 -40912-4 0  9996,2 52503  53.2147 168.3319 0001210  87.2881 272.8249 15.08841255111330,6917.877,95.437,540.579,538.904,0.0
52503.0,STARLINK-3861,PAYLOAD,2024-05-08 20:05:30,15.08848992,0.0001242,53.2163,166.2507,87.4944,272.619,4.0857e-05,3.63e-06,0.0,0 STARLINK-3861,1 52503U 22049BE  24129.83716136  .00000363  00000-0  40857-4 0  9995,2 52503  53.2163 166.2507 0001242  87.4944 272.6190 15.08848992111407,6917.853,95.437,540.577,538.859,0.0
52503.0,STARLINK-3861,PAYLOAD,2024-05-09 05:37:49,15.08842464,0.0001427,53.2172,164.4666,94.648,265.4676,8.2136e-05,1.02e-05,0.0,0 STARLINK-3861,1 52503U 22049BE  24130.23460507  .00001020  00000-0  82136-4 0  9996,2 52503  53.2172 164.4666 0001427  94.6480 265.4676 15.08842464111624,6917.873,95.437,540.725,538.751,0.0
52503.0,STARLINK-3861,PAYLOAD,2024-05-09 08:48:36,15.08841951,0.0001402,53.2172,163.8724,92.2445,267.8707,8.0312e-05,9.91e-06,0.0,0 STARLINK-3861,1 52503U 22049BE  24130.36708542  .00000991  00000-0  80312-4 0  9994,2 52503  53.2172 163.8724 0001402  92.2445 267.8707 15.08841951111485,6917.874,95.437,540.709,538.77,0.0
52503.0,STARLINK-3861,PAYLOAD,2024-05-10 08:39:23,15.08840097,0.0001474,53.2174,159.412,94.2951,265.8209,8.9948e-05,1.144e-05,0.0,0 STARLINK-3861,1 52503U 22049BE  24131.36068875  .00001144  00000-0  89948-4 0  9998,2 52503  53.2174 159.4120 0001474  94.2951 265.8209 15.08840097111790,6917.88,95.438,540.765,538.725,0.0
52503.0,STARLINK-3861,PAYLOAD,2024-05-11 11:40:55,15.08875428,0.0001336,53.2148,154.3552,94.9786,265.1358,0.00054221,8.36e-05,0.0,0 STARLINK-3861,1 52503U 22049BE  24132.48674891  .00008360  00000-0  54221-3 0  9995,2 52503  53.2148 154.3552 0001336  94.9786 265.1358 15.08875428111967,6917.772,95.435,540.561,538.713,0.0
52503.0,STARLINK-3861,PAYLOAD,2024-05-11 18:02:26,15.08890823,0.0001265,53.2153,153.1698,96.5853,263.5283,0.00071042,0.00011052,0.0,0 STARLINK-3861,1 52503U 22049BE  24132.75169629  .00011052  00000-0  71042-3 0  9995,2 52503  53.2153 153.1698 0001265  96.5853 263.5283 15.08890823112006,6917.725,95.434,540.465,538.715,0.0
52503.0,STARLINK-3861,PAYLOAD,2024-05-12 05:10:11,15.08803995,0.000147,53.2154,151.0862,106.8771,253.2382,-0.00099049,-0.00016001,0.0,0 STARLINK-3861,1 52503U 22049BE  24133.21541022 -.00016001  00000-0 -99049-3 0  9996,2 52503  53.2154 151.0862 0001470 106.8771 253.2382 15.08803995112076,6917.99,95.44,540.872,538.838,0.0
52503.0,STARLINK-3861,PAYLOAD,2024-05-12 08:20:57,15.08804214,0.0001512,53.215,150.4911,109.0457,251.0699,-0.0011649,-0.00018761,0.0,0 STARLINK-3861,1 52503U 22049BE  24133.34788902 -.00018761  00000-0 -11649-2 0  9994,2 52503  53.2150 150.4911 0001512 109.0457 251.0699 15.08804214111939,6917.99,95.44,540.901,538.809,0.0
52503.0,STARLINK-3861,PAYLOAD,2024-05-12 17:53:17,15.08783826,0.0001646,53.2147,148.707,119.6962,240.4194,-0.00034372,-5.746e-05,0.0,0 STARLINK-3861,1 52503U 22049BE  24133.74534438 -.00005746  00000-0 -34372-3 0  9999,2 52503  53.2147 148.7070 0001646 119.6962 240.4194 15.08783826111990,6918.052,95.441,541.056,538.778,0.0
52503.0,STARLINK-3861,PAYLOAD,2024-05-13 05:01:00,15.08821946,0.0001669,53.2151,146.6266,124.5433,235.5717,0.0011573,0.00018169,0.0,0 STARLINK-3861,1 52503U 22049BE  24134.20903312  .00018169  00000-0  11573-2 0  9990,2 52503  53.2151 146.6266 0001669 124.5433 235.5717 15.08821946112221,6917.936,95.439,540.955,538.646,0.0
52503.0,STARLINK-3861,PAYLOAD,2024-05-13 09:47:09,15.0883088,0.0001687,53.2153,145.7368,131.3781,228.7357,0.00057364,8.851e-05,0.0,0 STARLINK-3861,1 52503U 22049BE  24134.40775382  .00008851  00000-0  57364-3 0  9992,2 52503  53.2153 145.7368 0001687 131.3781 228.7357 15.08830880112094,6917.908,95.438,540.94,538.606,0.0
52503.0,STARLINK-3861,PAYLOAD,2024-05-13 17:44:05,15.08833651,0.0001614,53.2148,144.2473,128.191,231.9228,0.00065873,0.00010209,0.0,0 STARLINK-3861,1 52503U 22049BE  24134.73895536  .00010209  00000-0  65873-3 0  9996,2 52503  53.2148 144.2473 0001614 128.1910 231.9228 15.08833651112145,6917.9,95.438,540.881,538.648,0.0
52503.0,STARLINK-3861,PAYLOAD,2024-05-14 09:37:56,15.08847759,0.0001591,53.2147,141.2728,128.2508,231.8628,0.00055677,8.586e-05,0.0,0 STARLINK-3861,1 52503U 22049BE  24135.40135308  .00008586  00000-0  55677-3 0  9991,2 52503  53.2147 141.2728 0001591 128.2508 231.8628 15.08847759112408,6917.857,95.437,540.822,538.621,0.0
52503.0,STARLINK-3861,PAYLOAD,2024-05-14 17:34:52,15.08854624,0.0001577,53.2147,139.7859,128.9711,231.1422,0.00060961,9.431e-05,0.0,0 STARLINK-3861,1 52503U 22049BE  24135.73255042  .00009431  00000-0  60961-3 0  9997,2 52503  53.2147 139.7859 0001577 128.9711 231.1422 15.08854624112293,6917.836,95.437,540.792,538.61,0.0
52503.0,STARLINK-3861,PAYLOAD,2024-05-15 07:53:19,15.08867004,0.0001574,53.2148,137.1095,128.4051,231.7082,0.00067902,0.00010543,0.0,0 STARLINK-3861,1 52503U 22049BE  24136.32870207  .00010543  00000-0  67902-3 0  9997,2 52503  53.2148 137.1095 0001574 128.4051 231.7082 15.08867004112381,6917.798,95.436,540.752,538.574,0.0
52503.0,STARLINK-3861,PAYLOAD,2024-05-16 06:08:42,15.08858273,0.0001522,53.2151,132.9462,126.4815,233.6318,0.0001487,2.081e-05,0.0,0 STARLINK-3861,1 52503U 22049BE  24137.25605250  .00002081  00000-0  14870-3 0  9998,2 52503  53.2151 132.9462 0001522 126.4815 233.6318 15.08858273112689,6917.825,95.436,540.742,538.637,0.0
52503.0,STARLINK-3861,PAYLOAD,2024-05-16 09:19:29,15.08859905,0.0001535,53.2149,132.3512,125.9627,234.1508,0.00018173,2.607e-05,0.0,0 STARLINK-3861,1 52503U 22049BE  24137.38853074  .00002607  00000-0  18173-3 0  9995,2 52503  53.2149 132.3512 0001535 125.9627 234.1508 15.08859905112540,6917.82,95.436,540.746,538.623,0.0
52503.0,STARLINK-3861,PAYLOAD,2024-05-16 17:16:24,15.08859541,0.0001526,53.2146,130.8637,126.7673,233.346,0.00013958,1.935e-05,0.0,0 STARLINK-3861,1 52503U 22049BE  24137.71972680  .00001935  00000-0  13958-3 0  9996,2 52503  53.2146 130.8637 0001526 126.7673 233.3460 15.08859541112597,6917.821,95.436,540.741,538.63,0.0
